S-NET C                 
1 43189U 18014K   26187.80740213  .00004116  00000+0  21262-3 0  9995
2 43189  97.5371  92.7531 0008355 305.2688  54.7762 15.16828330460287
PAZ                     
1 43215U 18020A   26188.52617267  .00001254  00000+0  62886-4 0  9992
2 43215  97.4455 195.6226 0001700  87.6692 272.4738 15.19156631464092
GOES 17                 
1 43226U 18022A   26188.48380080 -.00000168  00000+0  00000+0 0  9990
2 43226   0.9856  85.3881 0000611  61.0437 223.6936  1.00271851 30626
LKW-4                   
1 43236U 18025A   26188.50113317  .00032026  00000+0  34003-3 0  9995
2 43236  97.6356   0.9927 0002998 208.1929 151.9167 15.64015525463201
ZHUHAI-1 OVS-02         
1 43440U 18040B   26188.50483927  .00004822  00000+0  19407-3 0  9990
2 43440  97.0387 204.5314 0004284 155.1885 204.9560 15.25307468455811
ZHUHAI-1 OHS-02         
1 43441U 18040C   26188.54396038  .00005594  00000+0  21860-3 0  9994
2 43441  97.0367 211.5282 0010572 148.5055 211.6819 15.26190716117380
GAOFEN-6                
1 43484U 18048A   26187.58915277 -.00000071  00000+0 -25920-5 0  9994
2 43484  98.0955 250.2710 0012040 105.7369 254.5169 14.76375241436258
LUOJIA-1 01             
1 43485U 18048B   26188.49167459  .00002081  00000+0  23618-3 0  9998
2 43485  97.8092 266.3540 0010126  60.3526 299.8697 14.87364766437230
PAKTES 1A               
1 43529U 18056A   26188.49570598  .00002143  00000+0  18070-3 0  9993
2 43529  98.1291 345.8485 0020341  43.1417 317.1394 14.99185811434963
PRSS-1                  
1 43530U 18056B   26188.51263406  .00000639  00000+0  86967-4 0  9994
2 43530  97.7807 255.8195 0001333  79.4828 280.6536 14.82022360431442
HAIYANG-1C              
1 43609U 18068A   26188.47721846  .00000212  00000+0  90958-4 0  9998
2 43609  98.5178 260.4917 0011639  40.0376 320.1665 14.34185749409991
SSTL S1-4               
1 43618U 18071A   26188.48621038 -.00000026  00000+0  25204-5 0  9992
2 43618  97.5004  59.2531 0002167  95.3663 264.7806 14.96198446425974
HAIYANG-2B              
1 43655U 18081A   26188.54637971  .00000292  00000+0  32775-3 0  9997
2 43655  99.3289 196.9954 0000555 157.1378 202.9799 13.79310147387737
CFOSAT                  
1 43662U 18083A   26188.48353882  .00002735  00000+0  14372-3 0  9993
2 43662  97.3611 192.4171 0002083  78.9159 281.2309 15.16504507425513
TEN-KOH                 
1 43677U 18084G   26188.36276108  .00002160  00000+0  16528-3 0  9999
2 43677  98.0746  21.5743 0010202  53.9044 306.3123 15.03014927419199
DIWATA-2B               
1 43678U 18084H   26188.50905343  .00002015  00000+0  16471-3 0  9992
2 43678  98.1215  25.6051 0013058 107.6352 252.6298 15.00543795419261
STARS-AO                
1 43679U 18084J   26188.05764681  .00004120  00000+0  21063-3 0  9993
2 43679  98.0487  43.2544 0003692  96.6046 263.5606 15.17285299420485
AUTCUBE 2               
1 43681U 18084K   26187.11440632  .00004392  00000+0  27281-3 0  9998
2 43681  98.0704  34.2926 0008499 348.3359  11.7671 15.10225719419788
METOP-C                 
1 43689U 18087A   26188.48035521  .00000071  00000+0  52097-4 0  9991
2 43689  98.6634 247.7120 0002199 103.6263 256.5160 14.21517595397715
ES'HAIL 2               
1 43700U 18090A   26188.29273581  .00000159  00000+0  00000+0 0  9997
2 43700   0.0187 293.6852 0002327 217.7947 264.9793  1.00272483 27879
MOHAMMED VI-B           
1 43717U 18095A   26188.49947655  .00001128  00000+0  16695-3 0  9990
2 43717  97.9544 260.5447 0001678  97.5621 262.5780 14.77077504411189
HYSIS                   
1 43719U 18096A   26188.51271594  .00001010  00000+0  14486-3 0  9994
2 43719  97.9826 255.1010 0001858  86.2248 273.9175 14.78661850410424
COSMOS 2530 (RODNIK-S *)
1 43751U 18097A   26188.50106178 -.00000075  00000+0 -61073-3 0  9991
2 43751  82.5123 209.6734 0019308 355.9586   4.1335 12.42881438344813
COSMOS 2531 (RODNIK-S *)
1 43752U 18097B   26188.52283620 -.00000076  00000+0 -61829-3 0  9992
2 43752  82.5168 210.7253 0016942  15.6775 344.4826 12.42912777344831
COSMOS 2532 (RODNIK-S *)
1 43753U 18097C   26188.47065705  .00000040  00000+0  21607-3 0  9998
2 43753  82.5113 209.5345 0018357  17.5495 342.6216 12.42910461344798
MINXSS-2                
1 43758U 18099A   26188.52395877  .00027073  00000+0  51100-3 0  9993
2 43758  97.4520 265.4238 0008167 184.1335 175.9849 15.48400958417271
SIRION PATHFINDER-2     
1 43759U 18099B   26187.67083206  .00004650  00000+0  25427-3 0  9998
2 43759  97.4242 236.2659 0007650 223.3987 136.6643 15.14731584415573
AISTECHSAT 2            
1 43768U 18099L   26188.09449706  .00004140  00000+0  22105-3 0  9990
2 43768  97.4282 235.6938 0003823 210.5456 149.5555 15.15659206415292
FOX-1CLIFF (AO-95)      
1 43770U 18099N   26188.13093529  .00008409  00000+0  31834-3 0  9997
2 43770  97.4371 248.3079 0006930 274.3916  85.6531 15.27157172416262
RANGE-A                 
1 43773U 18099R   26188.07871977  .00003382  00000+0  19204-3 0  9996
2 43773  97.3953 230.0764 0008532 278.5374  81.4890 15.13562801415505
