OBJECT_NAME,OBJECT_ID,EPOCH,MEAN_MOTION,ECCENTRICITY,INCLINATION,RA_OF_ASC_NODE,ARG_OF_PERICENTER,MEAN_ANOMALY,EPHEMERIS_TYPE,CLASSIFICATION_TYPE,NORAD_CAT_ID,ELEMENT_SET_NO,REV_AT_EPOCH,BSTAR,MEAN_MOTION_DOT,MEAN_MOTION_DDOT
S-NET C,2018-014K,2026-07-06T19:22:39.544032,15.16828330,.0008355,97.5371,92.7531,305.2688,54.7762,0,U,43189,999,46028,.21262E-3,.4116E-4,0
PAZ,2018-020A,2026-07-07T12:37:41.318688,15.19156631,.00017,97.4455,195.6226,87.6692,272.4738,0,U,43215,999,46409,.62886E-4,.1254E-4,0
GOES 17,2018-022A,2026-07-07T11:36:40.389120,1.00271851,.0000611,0.9856,85.3881,61.0437,223.6936,0,U,43226,999,3062,0,-.168E-5,0
LKW-4,2018-025A,2026-07-07T12:01:37.905888,15.64015525,.0002998,97.6356,0.9927,208.1929,151.9167,0,U,43236,999,46320,.34003E-3,.32026E-3,0
ZHUHAI-1 OVS-02,2018-040B,2026-07-07T12:06:58.112928,15.25307468,.0004284,97.0387,204.5314,155.1885,204.9560,0,U,43440,999,45581,.19407E-3,.4822E-4,0
ZHUHAI-1 OHS-02,2018-040C,2026-07-07T13:03:18.176832,15.26190716,.0010572,97.0367,211.5282,148.5055,211.6819,0,U,43441,999,11738,.2186E-3,.5594E-4,0
GAOFEN-6,2018-048A,2026-07-06T14:08:22.799328,14.76375241,.001204,98.0955,250.2710,105.7369,254.5169,0,U,43484,999,43625,-.2592E-5,-.71E-6,0
LUOJIA-1 01,2018-048B,2026-07-07T11:48:00.684576,14.87364766,.0010126,97.8092,266.3540,60.3526,299.8697,0,U,43485,999,43723,.23618E-3,.2081E-4,0
PAKTES 1A,2018-056A,2026-07-07T11:53:48.996672,14.99185811,.0020341,98.1291,345.8485,43.1417,317.1394,0,U,43529,999,43496,.1807E-3,.2143E-4,0
PRSS-1,2018-056B,2026-07-07T12:18:11.582784,14.82022360,.0001333,97.7807,255.8195,79.4828,280.6536,0,U,43530,999,43144,.86967E-4,.639E-5,0
HAIYANG-1C,2018-068A,2026-07-07T11:27:11.674944,14.34185749,.0011639,98.5178,260.4917,40.0376,320.1665,0,U,43609,999,40999,.90958E-4,.212E-5,0
SSTL S1-4,2018-071A,2026-07-07T11:40:08.576832,14.96198446,.0002167,97.5004,59.2531,95.3663,264.7806,0,U,43618,999,42597,.25204E-5,-.26E-6,0
HAIYANG-2B,2018-081A,2026-07-07T13:06:47.206944,13.79310147,.0000555,99.3289,196.9954,157.1378,202.9799,0,U,43655,999,38773,.32775E-3,.292E-5,0
CFOSAT,2018-083A,2026-07-07T11:36:17.754048,15.16504507,.0002083,97.3611,192.4171,78.9159,281.2309,0,U,43662,999,42551,.14372E-3,.2735E-4,0
TEN-KOH,2018-084G,2026-07-07T08:42:22.557312,15.03014927,.0010202,98.0746,21.5743,53.9044,306.3123,0,U,43677,999,41919,.16528E-3,.216E-4,0
DIWATA-2B,2018-084H,2026-07-07T12:13:02.216352,15.00543795,.0013058,98.1215,25.6051,107.6352,252.6298,0,U,43678,999,41926,.16471E-3,.2015E-4,0
STARS-AO,2018-084J,2026-07-07T01:23:00.684384,15.17285299,.0003692,98.0487,43.2544,96.6046,263.5606,0,U,43679,999,42048,.21063E-3,.412E-4,0
AUTCUBE 2,2018-084K,2026-07-06T02:44:44.706048,15.10225719,.0008499,98.0704,34.2926,348.3359,11.7671,0,U,43681,999,41978,.27281E-3,.4392E-4,0
METOP-C,2018-087A,2026-07-07T11:31:42.690144,14.21517595,.0002199,98.6634,247.7120,103.6263,256.5160,0,U,43689,999,39771,.52097E-4,.71E-6,0
ES'HAIL 2,2018-090A,2026-07-07T07:01:32.373984,1.00272483,.0002327,0.0187,293.6852,217.7947,264.9793,0,U,43700,999,2787,0,.159E-5,0
MOHAMMED VI-B,2018-095A,2026-07-07T11:59:14.773920,14.77077504,.0001678,97.9544,260.5447,97.5621,262.5780,0,U,43717,999,41118,.16695E-3,.1128E-4,0
HYSIS,2018-096A,2026-07-07T12:18:18.657216,14.78661850,.0001858,97.9826,255.1010,86.2248,273.9175,0,U,43719,999,41042,.14486E-3,.101E-4,0
COSMOS 2530 (RODNIK-S 16),2018-097A,2026-07-07T12:01:31.737792,12.42881438,.0019308,82.5123,209.6734,355.9586,4.1335,0,U,43751,999,34481,-.61073E-3,-.75E-6,0
COSMOS 2531 (RODNIK-S 17),2018-097B,2026-07-07T12:32:53.047680,12.42912777,.0016942,82.5168,210.7253,15.6775,344.4826,0,U,43752,999,34483,-.61829E-3,-.76E-6,0
COSMOS 2532 (RODNIK-S 18),2018-097C,2026-07-07T11:17:44.769120,12.42910461,.0018357,82.5113,209.5345,17.5495,342.6216,0,U,43753,999,34479,.21607E-3,.4E-6,0
MINXSS-2,2018-099A,2026-07-07T12:34:30.037728,15.48400958,.0008167,97.4520,265.4238,184.1335,175.9849,0,U,43758,999,41727,.511E-3,.27073E-3,0
SIRION PATHFINDER-2,2018-099B,2026-07-06T16:05:59.889984,15.14731584,.000765,97.4242,236.2659,223.3987,136.6643,0,U,43759,999,41557,.25427E-3,.465E-4,0
AISTECHSAT 2,2018-099L,2026-07-07T02:16:04.545984,15.15659206,.0003823,97.4282,235.6938,210.5456,149.5555,0,U,43768,999,41529,.22105E-3,.414E-4,0
FOX-1CLIFF (AO-95),2018-099N,2026-07-07T03:08:32.809056,15.27157172,.000693,97.4371,248.3079,274.3916,85.6531,0,U,43770,999,41626,.31834E-3,.8409E-4,0
RANGE-A,2018-099R,2026-07-07T01:53:21.388128,15.13562801,.0008532,97.3953,230.0764,278.5374,81.4890,0,U,43773,999,41550,.19204E-3,.3382E-4,0
